CCSDS_OMM_VERS = 2.0
CREATION_DATE  = 
ORIGINATOR     = 

OBJECT_NAME    = SL-16 R/B
OBJECT_ID      = 1993-016B
CENTER_NAME    = EARTH
REF_FRAME      = TEME
TIME_SYSTEM    = UTC
MEAN_ELEMENT_THEORY = SGP/SGP4

EPOCH          = 2026-02-22T00:27:13.010112
MEAN_MOTION    = 14.15299919
ECCENTRICITY   = .0010801
INCLINATION    = 71.0043
RA_OF_ASC_NODE = 248.0962
ARG_OF_PERICENTER = 335.6478
MEAN_ANOMALY   = 24.4133

EPHEMERIS_TYPE = 0
CLASSIFICATION_TYPE = U
NORAD_CAT_ID   = 22566
ELEMENT_SET_NO = 999
REV_AT_EPOCH   = 69995
BSTAR          = .92596E-5
MEAN_MOTION_DOT = -.3E-6
MEAN_MOTION_DDOT = 0

CCSDS_OMM_VERS = 2.0
CREATION_DATE  = 
ORIGINATOR     = 

OBJECT_NAME    = COSMOS 2242
OBJECT_ID      = 1993-024A
CENTER_NAME    = EARTH
REF_FRAME      = TEME
TIME_SYSTEM    = UTC
MEAN_ELEMENT_THEORY = SGP/SGP4

EPOCH          = 2026-02-22T02:57:54.504000
MEAN_MOTION    = 14.96480337
ECCENTRICITY   = .0016502
INCLINATION    = 82.5169
RA_OF_ASC_NODE = 281.6074
ARG_OF_PERICENTER = 3.0960
MEAN_ANOMALY   = 357.0361

EPHEMERIS_TYPE = 0
CLASSIFICATION_TYPE = U
NORAD_CAT_ID   = 22626
ELEMENT_SET_NO = 999
REV_AT_EPOCH   = 77806
BSTAR          = .15499E-3
MEAN_MOTION_DOT = .179E-4
MEAN_MOTION_DDOT = 0

CCSDS_OMM_VERS = 2.0
CREATION_DATE  = 
ORIGINATOR     = 

OBJECT_NAME    = SL-16 R/B
OBJECT_ID      = 1993-059B
CENTER_NAME    = EARTH
REF_FRAME      = TEME
TIME_SYSTEM    = UTC
MEAN_ELEMENT_THEORY = SGP/SGP4

EPOCH          = 2026-02-22T05:33:08.685792
MEAN_MOTION    = 14.17227857
ECCENTRICITY   = .0019147
INCLINATION    = 70.9898
RA_OF_ASC_NODE = 43.7242
ARG_OF_PERICENTER = 237.7706
MEAN_ANOMALY   = 122.1562

EPHEMERIS_TYPE = 0
CLASSIFICATION_TYPE = U
NORAD_CAT_ID   = 22803
ELEMENT_SET_NO = 999
REV_AT_EPOCH   = 67734
BSTAR          = .8303E-4
MEAN_MOTION_DOT = .12E-5
MEAN_MOTION_DDOT = 0

CCSDS_OMM_VERS = 2.0
CREATION_DATE  = 
ORIGINATOR     = 

OBJECT_NAME    = ARIANE 40 R/B
OBJECT_ID      = 1993-061H
CENTER_NAME    = EARTH
REF_FRAME      = TEME
TIME_SYSTEM    = UTC
MEAN_ELEMENT_THEORY = SGP/SGP4

EPOCH          = 2026-02-22T03:01:54.892128
MEAN_MOTION    = 14.32851765
ECCENTRICITY   = .0009991
INCLINATION    = 98.4952
RA_OF_ASC_NODE = 122.3186
ARG_OF_PERICENTER = 335.5114
MEAN_ANOMALY   = 24.5595

EPHEMERIS_TYPE = 0
CLASSIFICATION_TYPE = U
NORAD_CAT_ID   = 22830
ELEMENT_SET_NO = 999
REV_AT_EPOCH   = 69187
BSTAR          = .73165E-4
MEAN_MOTION_DOT = .156E-5
MEAN_MOTION_DDOT = 0

CCSDS_OMM_VERS = 2.0
CREATION_DATE  = 
ORIGINATOR     = 

OBJECT_NAME    = COSMOS 2278
OBJECT_ID      = 1994-023A
CENTER_NAME    = EARTH
REF_FRAME      = TEME
TIME_SYSTEM    = UTC
MEAN_ELEMENT_THEORY = SGP/SGP4

EPOCH          = 2026-02-22T04:19:04.672416
MEAN_MOTION    = 14.14367540
ECCENTRICITY   = .0007219
INCLINATION    = 71.0517
RA_OF_ASC_NODE = 207.5443
ARG_OF_PERICENTER = 44.2272
MEAN_ANOMALY   = 315.9426

EPHEMERIS_TYPE = 0
CLASSIFICATION_TYPE = U
NORAD_CAT_ID   = 23087
ELEMENT_SET_NO = 999
REV_AT_EPOCH   = 64261
BSTAR          = .20343E-3
MEAN_MOTION_DOT = .342E-5
MEAN_MOTION_DDOT = 0

CCSDS_OMM_VERS = 2.0
CREATION_DATE  = 
ORIGINATOR     = 

OBJECT_NAME    = SL-16 R/B
OBJECT_ID      = 1994-023B
CENTER_NAME    = EARTH
REF_FRAME      = TEME
TIME_SYSTEM    = UTC
MEAN_ELEMENT_THEORY = SGP/SGP4

EPOCH          = 2026-02-22T05:36:06.040800
MEAN_MOTION    = 14.15011312
ECCENTRICITY   = .0005045
INCLINATION    = 70.9991
RA_OF_ASC_NODE = 103.3495
ARG_OF_PERICENTER = 300.0097
MEAN_ANOMALY   = 60.0525

EPHEMERIS_TYPE = 0
CLASSIFICATION_TYPE = U
NORAD_CAT_ID   = 23088
ELEMENT_SET_NO = 999
REV_AT_EPOCH   = 64390
BSTAR          = .14418E-3
MEAN_MOTION_DOT = .232E-5
MEAN_MOTION_DDOT = 0

CCSDS_OMM_VERS = 2.0
CREATION_DATE  = 
ORIGINATOR     = 

OBJECT_NAME    = SL-16 R/B
OBJECT_ID      = 1994-074B
CENTER_NAME    = EARTH
REF_FRAME      = TEME
TIME_SYSTEM    = UTC
MEAN_ELEMENT_THEORY = SGP/SGP4

EPOCH          = 2026-02-22T02:27:14.700672
MEAN_MOTION    = 14.79387459
ECCENTRICITY   = .0005122
INCLINATION    = 97.7131
RA_OF_ASC_NODE = 84.5497
ARG_OF_PERICENTER = 272.9160
MEAN_ANOMALY   = 150.8656

EPHEMERIS_TYPE = 0
CLASSIFICATION_TYPE = U
NORAD_CAT_ID   = 23343
ELEMENT_SET_NO = 999
REV_AT_EPOCH   = 68494
BSTAR          = .57423E-4
MEAN_MOTION_DOT = .379E-5
MEAN_MOTION_DDOT = 0

CCSDS_OMM_VERS = 2.0
CREATION_DATE  = 
ORIGINATOR     = 

OBJECT_NAME    = SL-16 R/B
OBJECT_ID      = 1994-077B
CENTER_NAME    = EARTH
REF_FRAME      = TEME
TIME_SYSTEM    = UTC
MEAN_ELEMENT_THEORY = SGP/SGP4

EPOCH          = 2026-02-22T05:18:17.283168
MEAN_MOTION    = 14.15563974
ECCENTRICITY   = .0003817
INCLINATION    = 70.9841
RA_OF_ASC_NODE = 25.0297
ARG_OF_PERICENTER = 228.4328
MEAN_ANOMALY   = 131.6468

EPHEMERIS_TYPE = 0
CLASSIFICATION_TYPE = U
NORAD_CAT_ID   = 23405
ELEMENT_SET_NO = 999
REV_AT_EPOCH   = 61404
BSTAR          = .2878E-4
MEAN_MOTION_DOT = .8E-7
MEAN_MOTION_DDOT = 0

CCSDS_OMM_VERS = 2.0
CREATION_DATE  = 
ORIGINATOR     = 

OBJECT_NAME    = ARIANE 40+ R/B
OBJECT_ID      = 1995-021B
CENTER_NAME    = EARTH
REF_FRAME      = TEME
TIME_SYSTEM    = UTC
MEAN_ELEMENT_THEORY = SGP/SGP4

EPOCH          = 2026-02-22T04:10:00.907104
MEAN_MOTION    = 14.39759855
ECCENTRICITY   = .000691
INCLINATION    = 98.4531
RA_OF_ASC_NODE = 124.8639
ARG_OF_PERICENTER = 179.3072
MEAN_ANOMALY   = 207.5664

EPHEMERIS_TYPE = 0
CLASSIFICATION_TYPE = U
NORAD_CAT_ID   = 23561
ELEMENT_SET_NO = 999
REV_AT_EPOCH   = 61701
BSTAR          = .86951E-4
MEAN_MOTION_DOT = .229E-5
MEAN_MOTION_DDOT = 0

CCSDS_OMM_VERS = 2.0
CREATION_DATE  = 
ORIGINATOR     = 

OBJECT_NAME    = SL-16 R/B
OBJECT_ID      = 1995-058B
CENTER_NAME    = EARTH
REF_FRAME      = TEME
TIME_SYSTEM    = UTC
MEAN_ELEMENT_THEORY = SGP/SGP4

EPOCH          = 2026-02-22T03:45:28.594080
MEAN_MOTION    = 14.15494895
ECCENTRICITY   = .0011328
INCLINATION    = 71.0201
RA_OF_ASC_NODE = 212.8643
ARG_OF_PERICENTER = 153.0696
MEAN_ANOMALY   = 207.1017

EPHEMERIS_TYPE = 0
CLASSIFICATION_TYPE = U
NORAD_CAT_ID   = 23705
ELEMENT_SET_NO = 999
REV_AT_EPOCH   = 56565
BSTAR          = -.90253E-4
MEAN_MOTION_DOT = -.224E-5
MEAN_MOTION_DDOT = 0

CCSDS_OMM_VERS = 2.0
CREATION_DATE  = 
ORIGINATOR     = 

OBJECT_NAME    = SL-16 R/B
OBJECT_ID      = 1996-051B
CENTER_NAME    = EARTH
REF_FRAME      = TEME
TIME_SYSTEM    = UTC
MEAN_ELEMENT_THEORY = SGP/SGP4

EPOCH          = 2026-02-22T03:50:56.520960
MEAN_MOTION    = 14.12411222
ECCENTRICITY   = .0016476
INCLINATION    = 70.7580
RA_OF_ASC_NODE = 208.1069
ARG_OF_PERICENTER = 170.4584
MEAN_ANOMALY   = 189.6851

EPHEMERIS_TYPE = 0
CLASSIFICATION_TYPE = U
NORAD_CAT_ID   = 24298
ELEMENT_SET_NO = 999
REV_AT_EPOCH   = 51945
BSTAR          = .79405E-4
MEAN_MOTION_DOT = .97E-6
MEAN_MOTION_DDOT = 0

CCSDS_OMM_VERS = 2.0
CREATION_DATE  = 
ORIGINATOR     = 

OBJECT_NAME    = ORBVIEW 2 (SEASTAR)
OBJECT_ID      = 1997-037A
CENTER_NAME    = EARTH
REF_FRAME      = TEME
TIME_SYSTEM    = UTC
MEAN_ELEMENT_THEORY = SGP/SGP4

EPOCH          = 2026-02-22T03:40:24.990528
MEAN_MOTION    = 14.35481460
ECCENTRICITY   = .0003171
INCLINATION    = 98.8538
RA_OF_ASC_NODE = 217.0554
ARG_OF_PERICENTER = 103.1807
MEAN_ANOMALY   = 256.9731

EPHEMERIS_TYPE = 0
CLASSIFICATION_TYPE = U
NORAD_CAT_ID   = 24883
ELEMENT_SET_NO = 999
REV_AT_EPOCH   = 50624
BSTAR          = .99817E-4
MEAN_MOTION_DOT = .24E-5
MEAN_MOTION_DDOT = 0

