SL-16 R/B               
1 22566U 93016B   26053.01890058 -.00000030  00000+0  92596-5 0  9996
2 22566  71.0043 248.0962 0010801 335.6478  24.4133 14.15299919699950
COSMOS 2242             
1 22626U 93024A   26053.12354750  .00001790  00000+0  15499-3 0  9996
2 22626  82.5169 281.6074 0016502   3.0960 357.0361 14.96480337778069
SL-16 R/B               
1 22803U 93059B   26053.23135053  .00000120  00000+0  83030-4 0  9999
2 22803  70.9898  43.7242 0019147 237.7706 122.1562 14.17227857677344
ARIANE 40 R/B           
1 22830U 93061H   26053.12632977  .00000156  00000+0  73165-4 0  9994
2 22830  98.4952 122.3186 0009991 335.5114  24.5595 14.32851765691870
COSMOS 2278             
1 23087U 94023A   26053.17991519  .00000342  00000+0  20343-3 0  9999
2 23087  71.0517 207.5443 0007219  44.2272 315.9426 14.14367540642612
SL-16 R/B               
1 23088U 94023B   26053.23340325  .00000232  00000+0  14418-3 0  9994
2 23088  70.9991 103.3495 0005045 300.0097  60.0525 14.15011312643905
SL-16 R/B               
1 23343U 94074B   26053.10225348  .00000379  00000+0  57423-4 0  9993
2 23343  97.7131  84.5497 0005122 272.9160 150.8656 14.79387459684948
SL-16 R/B               
1 23405U 94077B   26053.22103337  .00000008  00000+0  28780-4 0  9994
2 23405  70.9841  25.0297 0003817 228.4328 131.6468 14.15563974614047
ARIANE 40+ R/B          
1 23561U 95021B   26053.17362161  .00000229  00000+0  86951-4 0  9992
2 23561  98.4531 124.8639 0006910 179.3072 207.5664 14.39759855617018
SL-16 R/B               
1 23705U 95058B   26053.15658095 -.00000224  00000+0 -90253-4 0  9991
2 23705  71.0201 212.8643 0011328 153.0696 207.1017 14.15494895565656
SL-16 R/B               
1 24298U 96051B   26053.16037640  .00000097  00000+0  79405-4 0  9993
2 24298  70.7580 208.1069 0016476 170.4584 189.6851 14.12411222519455
ORBVIEW 2 (SEASTAR)     
1 24883U 97037A   26053.15306702  .00000240  00000+0  99817-4 0  9994
2 24883  98.8538 217.0554 0003171 103.1807 256.9731 14.35481460506240
